     2.10           GLONASS NAV DATA                        RINEX VERSION / TYPE
Tersus                                  20-JAN-20 22:19     PGM / RUN BY / DATE 
    18                                                      LEAP SECONDS
                                                            END OF HEADER 
10 20 01 20 17 45  0.0-0.544274225831E-04 0.000000000000E+00 0.602264000000E+06
    0.663590234375E+04 0.120568847656E+01 0.000000000000E+00 0.000000000000E+00
   -0.107824575195E+05 0.278286552429E+01 0.186264514923E-08-0.500000000000E+01
    0.221194067383E+05 0.100149536133E+01-0.186264514923E-08 0.000000000000E+00
16 20 01 20 17 45  0.0-0.106822699308E-05 0.000000000000E+00 0.602264000000E+06
    0.120022656250E+05 0.318445205688E+00 0.186264514923E-08 0.000000000000E+00
    0.223610942383E+05 0.330952644348E+00 0.279396772385E-08-0.100000000000E+01
    0.315556298828E+04-0.351715564728E+01 0.186264514923E-08 0.000000000000E+00
18 20 01 20 17 45  0.0 0.222325325012E-04 0.909494701773E-12 0.602264000000E+06
   -0.654837402344E+04-0.309632396698E+01 0.186264514923E-08 0.000000000000E+00
    0.956943261719E+04-0.316225051880E+00 0.186264514923E-08-0.300000000000E+01
    0.227484965820E+05-0.753960609436E+00-0.931322574615E-09 0.000000000000E+00
19 20 01 20 17 45  0.0-0.750087201595E-04-0.909494701773E-12 0.602264000000E+06
    0.114081503906E+05-0.271730327606E+01 0.186264514923E-08 0.000000000000E+00
    0.107116499023E+05-0.509916305542E+00 0.372529029846E-08 0.300000000000E+01
    0.201523940430E+05 0.180959796906E+01 0.000000000000E+00 0.000000000000E+00
20 20 01 20 17 45  0.0-0.401994213462E-03-0.909494701773E-12 0.602264000000E+06
    0.245418242188E+05-0.539533615112E+00 0.000000000000E+00 0.000000000000E+00
    0.542083398438E+04-0.320313453674E+00 0.279396772385E-08 0.200000000000E+01
    0.423525830078E+04 0.355239486694E+01 0.931322574615E-09 0.000000000000E+00
 1 20 01 20 17 45  0.0 0.558877363801E-04 0.000000000000E+00 0.602504000000E+06
   -0.217354980469E+03 0.150377750397E+01 0.000000000000E+00 0.000000000000E+00
   -0.161645078125E+05-0.224526500702E+01 0.000000000000E+00 0.100000000000E+01
    0.197317504883E+05-0.182113838196E+01-0.279396772385E-08 0.000000000000E+00
 8 20 01 20 17 45  0.0 0.129956752062E-04 0.000000000000E+00 0.602504000000E+06
    0.107514692383E+05 0.575859069824E+00-0.931322574615E-09 0.000000000000E+00
   -0.214797060547E+05-0.103145980835E+01 0.000000000000E+00 0.600000000000E+01
    0.860980175781E+04-0.331155681610E+01-0.186264514923E-08 0.000000000000E+00
 9 20 01 20 18 15  0.0 0.112484209239E-03 0.181898940355E-11 0.604064000000E+06
    0.161229414063E+05 0.122637557983E+01 0.186264514923E-08 0.000000000000E+00
    0.112565356445E+05 0.185277271271E+01 0.372529029846E-08-0.200000000000E+01
    0.162237905273E+05-0.251184272766E+01 0.000000000000E+00 0.000000000000E+00
10 20 01 20 18 15  0.0-0.544283539057E-04 0.000000000000E+00 0.604064000000E+06
    0.923581787109E+04 0.166415882111E+01 0.931322574615E-09 0.000000000000E+00
   -0.581967431641E+04 0.268318176270E+01 0.279396772385E-08-0.500000000000E+01
    0.230420234375E+05 0.171756744385E-01-0.931322574615E-09 0.000000000000E+00
18 20 01 20 18 15  0.0 0.222362577915E-04 0.909494701773E-12 0.604064000000E+06
   -0.119058833008E+05-0.280609703064E+01 0.186264514923E-08 0.000000000000E+00
    0.942985009766E+04 0.149217605591E+00 0.931322574615E-09-0.300000000000E+01
    0.205323764648E+05-0.169236469269E+01-0.931322574615E-09 0.000000000000E+00
19 20 01 20 18 15  0.0-0.750115141273E-04-0.909494701773E-12 0.604064000000E+06
    0.613358447266E+04-0.309524154663E+01 0.279396772385E-08 0.000000000000E+00
    0.101546943359E+05-0.892009735107E-01 0.279396772385E-08 0.300000000000E+01
    0.225892988281E+05 0.880525588989E+00 0.000000000000E+00 0.000000000000E+00
20 20 01 20 18 15  0.0-0.401997007430E-03-0.909494701773E-12 0.604064000000E+06
    0.227651572266E+05-0.142064094543E+01 0.931322574615E-09 0.000000000000E+00
    0.488380957031E+04-0.234652519226E+00 0.372529029846E-08 0.200000000000E+01
    0.103826601563E+05 0.323363685608E+01 0.931322574615E-09 0.000000000000E+00
11 20 01 20 18 15  0.0-0.106701627374E-04-0.909494701773E-12 0.554000000000E+03
   -0.775778808594E+03 0.120260524750E+01 0.000000000000E+00 0.000000000000E+00
   -0.180679628906E+05 0.215028285980E+01 0.931322574615E-09 0.000000000000E+00
    0.180201230469E+05 0.220551395416E+01-0.279396772385E-08 0.000000000000E+00
 9 20 01 20 18 45  0.0 0.112487934530E-03 0.181898940355E-11 0.106400000000E+04
    0.181998598633E+05 0.103734970093E+01 0.279396772385E-08 0.000000000000E+00
    0.139390766602E+05 0.112090396881E+01 0.279396772385E-08-0.200000000000E+01
    0.111324746094E+05-0.310845851898E+01 0.931322574615E-09 0.000000000000E+00
10 20 01 20 18 45  0.0-0.544292852283E-04 0.000000000000E+00 0.106400000000E+04
    0.125294389648E+05 0.196107387543E+01 0.186264514923E-08 0.000000000000E+00
   -0.128156005859E+04 0.232058143616E+01 0.279396772385E-08-0.500000000000E+01
    0.221811733398E+05-0.967266082764E+00 0.000000000000E+00 0.000000000000E+00
11 20 01 20 18 45  0.0-0.106720253825E-04-0.909494701773E-12 0.106400000000E+04
    0.191313720703E+04 0.177645683289E+01 0.000000000000E+00 0.000000000000E+00
   -0.140222651367E+05 0.229712009430E+01 0.931322574615E-09 0.000000000000E+00
    0.212439956055E+05 0.135331726074E+01-0.186264514923E-08 0.000000000000E+00
19 20 01 20 18 45  0.0-0.750152394176E-04-0.909494701773E-12 0.106400000000E+04
    0.450447265625E+03-0.316614818573E+01 0.279396772385E-08 0.000000000000E+00
    0.104295727539E+05 0.396190643311E+00 0.186264514923E-08 0.300000000000E+01
    0.232814018555E+05-0.116511344910E+00-0.931322574615E-09 0.000000000000E+00
20 20 01 20 18 45  0.0-0.401998870075E-03-0.909494701773E-12 0.106400000000E+04
    0.195118906250E+05-0.216184806824E+01 0.186264514923E-08 0.000000000000E+00
    0.471410693359E+04 0.796127319336E-01 0.279396772385E-08 0.200000000000E+01
    0.157258896484E+05 0.266476249695E+01 0.000000000000E+00 0.000000000000E+00
21 20 01 20 18 45  0.0-0.995425507426E-04-0.272848410532E-11 0.106400000000E+04
    0.250172802734E+05 0.246665954590E+00 0.000000000000E+00 0.000000000000E+00
   -0.460930810547E+04-0.268795967102E+00 0.186264514923E-08 0.400000000000E+01
   -0.205760058594E+04 0.358494663239E+01 0.931322574615E-09 0.000000000000E+00
